ONEWEB-0597             
1 54663U 22166X   25356.53646296  .00000011  00000+0 -43362-5 0  9998
2 54663  87.9227 279.2271 0001823  79.2636 280.8704 13.21825982148203
ONEWEB-0600             
1 54664U 22166Y   25356.21557103  .00000149  00000+0  32817-3 0  9994
2 54664  87.9230 279.2820 0001933  76.2511 283.8838 13.21826562148137
ONEWEB-0601             
1 54665U 22166Z   25356.51012967  .00000162  00000+0  36046-3 0  9995
2 54665  87.9226 279.2413 0001968  83.8102 276.3256 13.21825732148363
ONEWEB-0602             
1 54666U 22166AA  25356.17195171 -.00001114  00000+0 -27281-2 0  9997
2 54666  87.9228 279.3128 0002034  73.3789 286.7569 13.21829969148166
ONEWEB-0603             
1 54667U 22166AB  25356.25341299  .00001289  00000+0  30887-2 0  9998
2 54667  87.9236 279.2367 0001963  79.3209 280.8146 13.21835731148107
ONEWEB-0604             
1 54668U 22166AC  25356.54468813  .00000031  00000+0  44130-4 0  9995
2 54668  87.9224 279.1974 0001758  74.1603 285.9725 13.21824731148108
ONEWEB-0605             
1 54669U 22166AD  25356.31101851  .00000022  00000+0  22729-4 0  9997
2 54669  87.9221 279.2717 0001843  96.4972 263.6371 13.21826292148141
ONEWEB-0606             
1 54670U 22166AE  25356.48380021 -.00000019  00000+0 -76959-4 0  9997
2 54670  87.9224 279.2487 0001594  72.1346 287.9961 13.21826581148223
